[{"OBJECT_NAME":"STARLINK-5585","OBJECT_ID":"2023-099F","EPOCH":"2026-03-09T13:19:37.533792","MEAN_MOTION":15.02536381,"ECCENTRICITY":0.00010454,"INCLINATION":43.0018,"RA_OF_ASC_NODE":249.9374,"ARG_OF_PERICENTER":248.5296,"MEAN_ANOMALY":111.5435,"EPHEMERIS_TYPE":0,"CLASSIFICATION_TYPE":"U","NORAD_CAT_ID":57333,"ELEMENT_SET_NO":999,"REV_AT_EPOCH":14609,"BSTAR":6.809423e-6,"MEAN_MOTION_DOT":-1.12e-6,"MEAN_MOTION_DDOT":0},{"OBJECT_NAME":"CZ-4B DEB","OBJECT_ID":"2008-053K","EPOCH":"2026-03-03T06:56:31.900704","MEAN_MOTION":15.04681815,"ECCENTRICITY":0.00115476,"INCLINATION":97.843,"RA_OF_ASC_NODE":88.8262,"ARG_OF_PERICENTER":63.9062,"MEAN_ANOMALY":296.3351,"EPHEMERIS_TYPE":0,"CLASSIFICATION_TYPE":"U","NORAD_CAT_ID":36289,"ELEMENT_SET_NO":999,"REV_AT_EPOCH":93214,"BSTAR":0.00025594062,"MEAN_MOTION_DOT":3.541e-5,"MEAN_MOTION_DDOT":0}]
